start=new Date('2023-05-04T00:00:00.000Z').valueOf();
sats=[{"OBJECT_NAME":"STARLINK-5902","OBJECT_ID":"2023-042N","CENTER_NAME":"EARTH","MEAN_MOTION":"15.42551824","BSTAR":"-0.02098500000000","OBJECT_TYPE":"PAYLOAD","RA_OF_ASC_NODE":"315.3294","MEAN_ELEMENT_THEORY":"SGP4","REV_AT_EPOCH":"130","MEAN_MOTION_DOT":"-0.00860923","ELEMENT_SET_NO":"999","APOAPSIS":"439.604","GP_ID":"231202339","FILE":"3900281","PERIOD":"93.352","MEAN_MOTION_DDOT":"0.0000000000000","DECAY_DATE":null,"CLASSIFICATION_TYPE":"U","EPOCH":"2023-05-03T22:00:00.999936","SITE":"AFETR","RCS_SIZE":"LARGE","NORAD_CAT_ID":"55998","INCLINATION":"43.0010","ECCENTRICITY":"0.00014980","TLE_LINE2":"2 55998  43.0010 315.3294 0001498 281.2554 119.6586 15.42551824  1309","PERIAPSIS":"437.562","REF_FRAME":"TEME","TLE_LINE1":"1 55998U 23042N   23123.91667824 -.00860923  00000-0 -20985-1 0  9996","ARG_OF_PERICENTER":"281.2554","SEMIMAJOR_AXIS":"6816.718","LAUNCH_DATE":"2023-03-24","TIME_SYSTEM":"UTC","EPHEMERIS_TYPE":"0","MEAN_ANOMALY":"119.6586","COUNTRY_CODE":"US"},{"CENTER_NAME":"EARTH","MEAN_MOTION":"15.41956047","BSTAR":"-0.02143100000000","OBJECT_NAME":"STARLINK-5901","OBJECT_ID":"2023-042P","ELEMENT_SET_NO":"999","APOAPSIS":"441.357","OBJECT_TYPE":"PAYLOAD","MEAN_ELEMENT_THEORY":"SGP4","RA_OF_ASC_NODE":"315.3541","REV_AT_EPOCH":"130","MEAN_MOTION_DOT":"-0.00861648","TLE_LINE2":"2 55999  43.0012 315.3541 0001493 279.5622 111.4539 15.41956047  1301","PERIAPSIS":"439.321","PERIOD":"93.388","GP_ID":"231200590","FILE":"3900281","MEAN_MOTION_DDOT":"0.0000000000000","DECAY_DATE":null,"CLASSIFICATION_TYPE":"U","EPOCH":"2023-05-03T22:00:00.999936","SITE":"AFETR","RCS_SIZE":"LARGE","NORAD_CAT_ID":"55999","INCLINATION":"43.0012","ECCENTRICITY":"0.00014930","TIME_SYSTEM":"UTC","EPHEMERIS_TYPE":"0","MEAN_ANOMALY":"111.4539","COUNTRY_CODE":"US","REF_FRAME":"TEME","TLE_LINE1":"1 55999U 23042P   23123.91667824 -.00861648  00000-0 -21431-1 0  9999","ARG_OF_PERICENTER":"279.5622","SEMIMAJOR_AXIS":"6818.474","LAUNCH_DATE":"2023-03-24"},{"TLE_LINE2":"2 56000  43.0008 315.2959 0001405 277.0024 138.0723 15.43556296  1308","PERIAPSIS":"434.668","MEAN_MOTION_DDOT":"0.0000000000000","GP_ID":"231200840","PERIOD":"93.291","FILE":"3900281","RCS_SIZE":"LARGE","SITE":"AFETR","DECAY_DATE":null,"CLASSIFICATION_TYPE":"U","EPOCH":"2023-05-03T22:00:00.999936","INCLINATION":"43.0008","NORAD_CAT_ID":"56000","ECCENTRICITY":"0.00014050","TIME_SYSTEM":"UTC","EPHEMERIS_TYPE":"0","MEAN_ANOMALY":"138.0723","COUNTRY_CODE":"US","REF_FRAME":"TEME","ARG_OF_PERICENTER":"277.0024","TLE_LINE1":"1 56000U 23042Q   23123.91667824 -.00880135  00000-0 -20772-1 0  9992","SEMIMAJOR_AXIS":"6813.760","LAUNCH_DATE":"2023-03-24","MEAN_MOTION":"15.43556296","CENTER_NAME":"EARTH","BSTAR":"-0.02077200000000","OBJECT_NAME":"STARLINK-5910","OBJECT_ID":"2023-042Q","ELEMENT_SET_NO":"999","APOAPSIS":"436.583","OBJECT_TYPE":"PAYLOAD","MEAN_MOTION_DOT":"-0.00880135","MEAN_ELEMENT_THEORY":"SGP4","REV_AT_EPOCH":"130","RA_OF_ASC_NODE":"315.2959"},{"MEAN_MOTION":"15.42930027","CENTER_NAME":"EARTH","BSTAR":"-0.02120700000000","OBJECT_NAME":"STARLINK-5944","OBJECT_ID":"2023-042R","APOAPSIS":"438.430","ELEMENT_SET_NO":"999","MEAN_MOTION_DOT":"-0.00879672","RA_OF_ASC_NODE":"315.3177","MEAN_ELEMENT_THEORY":"SGP4","REV_AT_EPOCH":"130","OBJECT_TYPE":"PAYLOAD","PERIAPSIS":"436.508","TLE_LINE2":"2 56001  43.0012 315.3177 0001410 278.1336 127.8110 15.42930027  1304","INCLINATION":"43.0012","NORAD_CAT_ID":"56001","ECCENTRICITY":"0.00014100","MEAN_MOTION_DDOT":"0.0000000000000","GP_ID":"231202090","PERIOD":"93.329","FILE":"3900281","RCS_SIZE":"LARGE","SITE":"AFETR","DECAY_DATE":null,"CLASSIFICATION_TYPE":"U","EPOCH":"2023-05-03T22:00:00.999936","MEAN_ANOMALY":"127.8110","EPHEMERIS_TYPE":"0","COUNTRY_CODE":"US","TIME_SYSTEM":"UTC","SEMIMAJOR_AXIS":"6815.604","LAUNCH_DATE":"2023-03-24","REF_FRAME":"TEME","ARG_OF_PERICENTER":"278.1336","TLE_LINE1":"1 56001U 23042R   23123.91667824 -.00879672  00000-0 -21207-1 0  9991"},{"OBJECT_TYPE":"PAYLOAD","MEAN_MOTION_DOT":"-0.00879586","REV_AT_EPOCH":"130","RA_OF_ASC_NODE":"315.3033","MEAN_ELEMENT_THEORY":"SGP4","ELEMENT_SET_NO":"999","APOAPSIS":"437.189","OBJECT_ID":"2023-042S","OBJECT_NAME":"STARLINK-5799","BSTAR":"-0.02090400000000","MEAN_MOTION":"15.43350436","CENTER_NAME":"EARTH","ARG_OF_PERICENTER":"278.2827","TLE_LINE1":"1 56002U 23042S   23123.91667824 -.00879586  00000-0 -20904-1 0  9999","REF_FRAME":"TEME","LAUNCH_DATE":"2023-03-24","SEMIMAJOR_AXIS":"6814.366","TIME_SYSTEM":"UTC","COUNTRY_CODE":"US","EPHEMERIS_TYPE":"0","MEAN_ANOMALY":"133.8618","RCS_SIZE":"LARGE","SITE":"AFETR","CLASSIFICATION_TYPE":"U","DECAY_DATE":null,"EPOCH":"2023-05-03T22:00:00.999936","MEAN_MOTION_DDOT":"0.0000000000000","PERIOD":"93.304","GP_ID":"231201840","FILE":"3900281","ECCENTRICITY":"0.00014060","INCLINATION":"43.0009","NORAD_CAT_ID":"56002","TLE_LINE2":"2 56002  43.0009 315.3033 0001406 278.2827 133.8618 15.43350436  1304","PERIAPSIS":"435.273"},{"OBJECT_TYPE":"PAYLOAD","MEAN_ELEMENT_THEORY":"SGP4","RA_OF_ASC_NODE":"315.3374","REV_AT_EPOCH":"130","MEAN_MOTION_DOT":"-0.00862476","ELEMENT_SET_NO":"999","APOAPSIS":"440.189","OBJECT_ID":"2023-042T","OBJECT_NAME":"STARLINK-5789","BSTAR":"-0.02117200000000","CENTER_NAME":"EARTH","MEAN_MOTION":"15.42347290","TLE_LINE1":"1 56003U 23042T   23123.91667824 -.00862476  00000-0 -21172-1 0  9998","ARG_OF_PERICENTER":"275.7979","REF_FRAME":"TEME","LAUNCH_DATE":"2023-03-24","SEMIMAJOR_AXIS":"6817.321","TIME_SYSTEM":"UTC","COUNTRY_CODE":"US","EPHEMERIS_TYPE":"0","MEAN_ANOMALY":"121.8076","DECAY_DATE":null,"EPOCH":"2023-05-03T22:00:00.999936","CLASSIFICATION_TYPE":"U","SITE":"AFETR","RCS_SIZE":"LARGE","GP_ID":"231201090","FILE":"3900281","PERIOD":"93.364","MEAN_MOTION_DDOT":"0.0000000000000","ECCENTRICITY":"0.00014720","NORAD_CAT_ID":"56003","INCLINATION":"43.0007","TLE_LINE2":"2 56003  43.0007 315.3374 0001472 275.7979 121.8076 15.42347290  1302","PERIAPSIS":"438.182"},{"OBJECT_NAME":"STARLINK-5787","OBJECT_ID":"2023-042U","MEAN_MOTION":"15.43583395","CENTER_NAME":"EARTH","BSTAR":"-0.02076400000000","MEAN_MOTION_DOT":"-0.00880574","RA_OF_ASC_NODE":"315.2935","MEAN_ELEMENT_THEORY":"SGP4","REV_AT_EPOCH":"130","OBJECT_TYPE":"PAYLOAD","APOAPSIS":"436.511","ELEMENT_SET_NO":"999","INCLINATION":"43.0009","NORAD_CAT_ID":"56004","ECCENTRICITY":"0.00014170","MEAN_MOTION_DDOT":"0.0000000000000","GP_ID":"231201340","FILE":"3900281","PERIOD":"93.289","RCS_SIZE":"LARGE","SITE":"AFETR","DECAY_DATE":null,"CLASSIFICATION_TYPE":"U","EPOCH":"2023-05-03T22:00:00.999936","PERIAPSIS":"434.580","TLE_LINE2":"2 56004  43.0009 315.2935 0001417 278.5764 137.6214 15.43583395  1307","SEMIMAJOR_AXIS":"6813.681","LAUNCH_DATE":"2023-03-24","REF_FRAME":"TEME","ARG_OF_PERICENTER":"278.5764","TLE_LINE1":"1 56004U 23042U   23123.91667824 -.00880574  00000-0 -20764-1 0  9994","EPHEMERIS_TYPE":"0","MEAN_ANOMALY":"137.6214","COUNTRY_CODE":"US","TIME_SYSTEM":"UTC"},{"TIME_SYSTEM":"UTC","COUNTRY_CODE":"US","MEAN_ANOMALY":"125.4804","EPHEMERIS_TYPE":"0","TLE_LINE1":"1 56005U 23042V   23123.91667824 -.00880939  00000-0 -21110-1 0  9996","ARG_OF_PERICENTER":"283.2790","REF_FRAME":"TEME","LAUNCH_DATE":"2023-03-24","SEMIMAJOR_AXIS":"6815.072","TLE_LINE2":"2 56005  43.0015 315.3097 0001455 283.2790 125.4804 15.43110677  1308","PERIAPSIS":"435.946","DECAY_DATE":null,"EPOCH":"2023-05-03T22:00:00.999936","CLASSIFICATION_TYPE":"U","SITE":"AFETR","RCS_SIZE":"LARGE","FILE":"3900281","GP_ID":"231201591","PERIOD":"93.318","MEAN_MOTION_DDOT":"0.0000000000000","ECCENTRICITY":"0.00014550","NORAD_CAT_ID":"56005","INCLINATION":"43.0015","ELEMENT_SET_NO":"999","APOAPSIS":"437.929","OBJECT_TYPE":"PAYLOAD","REV_AT_EPOCH":"130","RA_OF_ASC_NODE":"315.3097","MEAN_ELEMENT_THEORY":"SGP4","MEAN_MOTION_DOT":"-0.00880939","BSTAR":"-0.02111000000000","CENTER_NAME":"EARTH","MEAN_MOTION":"15.43110677","OBJECT_ID":"2023-042V","OBJECT_NAME":"STARLINK-5801"},{"OBJECT_ID":"2023-042W","OBJECT_NAME":"STARLINK-5794","BSTAR":"-0.02018700000000","CENTER_NAME":"EARTH","MEAN_MOTION":"15.44346341","OBJECT_TYPE":"PAYLOAD","MEAN_ELEMENT_THEORY":"SGP4","RA_OF_ASC_NODE":"315.2697","REV_AT_EPOCH":"130","MEAN_MOTION_DOT":"-0.00878857","ELEMENT_SET_NO":"999","APOAPSIS":"434.248","CLASSIFICATION_TYPE":"U","DECAY_DATE":null,"EPOCH":"2023-05-03T22:00:00.999936","SITE":"AFETR","RCS_SIZE":"LARGE","GP_ID":"231202340","FILE":"3900281","PERIOD":"93.243","MEAN_MOTION_DDOT":"0.0000000000000","ECCENTRICITY":"0.00013890","NORAD_CAT_ID":"56006","INCLINATION":"43.0010","TLE_LINE2":"2 56006  43.0010 315.2697 0001389 277.9605 147.7927 15.44346341  1303","PERIAPSIS":"432.355","TLE_LINE1":"1 56006U 23042W   23123.91667824 -.00878857  00000-0 -20187-1 0  9996","ARG_OF_PERICENTER":"277.9605","REF_FRAME":"TEME","LAUNCH_DATE":"2023-03-24","SEMIMAJOR_AXIS":"6811.436","TIME_SYSTEM":"UTC","COUNTRY_CODE":"US","MEAN_ANOMALY":"147.7927","EPHEMERIS_TYPE":"0"},{"OBJECT_TYPE":"PAYLOAD","MEAN_ELEMENT_THEORY":"SGP4","REV_AT_EPOCH":"130","RA_OF_ASC_NODE":"315.2846","MEAN_MOTION_DOT":"-0.00880409","ELEMENT_SET_NO":"999","APOAPSIS":"435.802","OBJECT_NAME":"STARLINK-5806","OBJECT_ID":"2023-042X","CENTER_NAME":"EARTH","MEAN_MOTION":"15.43819964","BSTAR":"-0.02059300000000","REF_FRAME":"TEME","TLE_LINE1":"1 56007U 23042X   23123.91667824 -.00880409  00000-0 -20593-1 0  9994","ARG_OF_PERICENTER":"273.9350","SEMIMAJOR_AXIS":"6812.985","LAUNCH_DATE":"2023-03-24","TIME_SYSTEM":"UTC","EPHEMERIS_TYPE":"0","MEAN_ANOMALY":"145.3985","COUNTRY_CODE":"US","PERIOD":"93.275","GP_ID":"231200591","FILE":"3900281","MEAN_MOTION_DDOT":"0.0000000000000","CLASSIFICATION_TYPE":"U","DECAY_DATE":null,"EPOCH":"2023-05-03T22:00:00.999936","SITE":"AFETR","RCS_SIZE":"LARGE","NORAD_CAT_ID":"56007","INCLINATION":"43.0011","ECCENTRICITY":"0.00013980","TLE_LINE2":"2 56007  43.0011 315.2846 0001398 273.9350 145.3985 15.43819964  1307","PERIAPSIS":"433.897"}];
